NORAD_CAT_ID,OBJECT_NAME,OBJECT_TYPE,EPOCH,MEAN_MOTION,ECCENTRICITY,INCLINATION,RA_OF_ASC_NODE,ARG_OF_PERICENTER,MEAN_ANOMALY,BSTAR,MEAN_MOTION_DOT,MEAN_MOTION_DDOT,TLE_LINE0,TLE_LINE1,TLE_LINE2,SEMIMAJOR_AXIS,PERIOD,APOGEE,PERIGEE,DECAYED
56487.0,STARLINK-6196,PAYLOAD,2024-07-02 05:29:07,14.99134962,0.0003152,69.9982,216.1998,266.4309,93.649,8.9817e-05,1.001e-05,0.0,0 STARLINK-6196,1 56487U 23064AR  24184.22856080  .00001001  00000-0  89817-4 0  9994,2 56487  69.9982 216.1998 0003152 266.4309  93.6490 14.99134962 64405,6947.705,96.055,571.76,567.38,0.0
56487.0,STARLINK-6196,PAYLOAD,2024-07-02 11:53:27,14.9913965,0.000317,69.9983,215.5258,266.1703,93.9094,7.0319e-05,7.63e-06,0.0,0 STARLINK-6196,1 56487U 23064AR  24184.49545440  .00000763  00000-0  70319-4 0  9999,2 56487  69.9983 215.5258 0003170 266.1703  93.9094 14.99139650 64089,6947.69,96.055,571.758,567.353,0.0
56487.0,STARLINK-6196,PAYLOAD,2024-07-03 11:54:41,14.99140949,0.0003146,69.9985,212.9993,266.6879,93.3921,1.0635e-05,3.6e-07,0.0,0 STARLINK-6196,1 56487U 23064AR  24185.49631441  .00000036  00000-0  10635-4 0  9995,2 56487  69.9985 212.9993 0003146 266.6879  93.3921 14.99140949 64592,6947.686,96.055,571.737,567.365,0.0
56487.0,STARLINK-6196,PAYLOAD,2024-07-04 11:55:55,14.99142462,0.0003172,69.9985,210.4729,268.3168,91.7628,4.2761e-05,4.27e-06,0.0,0 STARLINK-6196,1 56487U 23064AR  24186.49717102  .00000427  00000-0  42761-4 0  9994,2 56487  69.9985 210.4729 0003172 268.3168  91.7628 14.99142462 64746,6947.682,96.055,571.75,567.343,0.0
56487.0,STARLINK-6196,PAYLOAD,2024-07-04 18:20:15,14.9914112,0.0003163,69.9986,209.7989,269.5991,90.4805,3.3777e-05,3.18e-06,0.0,0 STARLINK-6196,1 56487U 23064AR  24186.76406761  .00000318  00000-0  33777-4 0  9996,2 56487  69.9986 209.7989 0003163 269.5991  90.4805 14.99141120 64421,6947.686,96.055,571.748,567.353,0.0
56487.0,STARLINK-6196,PAYLOAD,2024-07-05 10:21:04,14.99139947,0.0003105,69.9987,208.1148,268.3611,91.7192,4.4765e-05,4.52e-06,0.0,0 STARLINK-6196,1 56487U 23064AR  24187.43130759  .00000452  00000-0  44765-4 0  9990,2 56487  69.9987 208.1148 0003105 268.3611  91.7192 14.99139947 64522,6947.689,96.055,571.712,567.397,0.0
56487.0,STARLINK-6196,PAYLOAD,2024-07-05 18:21:29,14.99140632,0.0003094,69.9987,207.2726,268.7005,91.38,2.0555e-05,1.57e-06,0.0,0 STARLINK-6196,1 56487U 23064AR  24187.76492744  .00000157  00000-0  20555-4 0  9994,2 56487  69.9987 207.2726 0003094 268.7005  91.3800 14.99140632 64932,6947.687,96.055,571.702,567.403,0.0
56487.0,STARLINK-6196,PAYLOAD,2024-07-06 11:58:24,14.99139573,0.0003077,69.9989,205.4198,268.5228,91.5579,2.9037e-06,-5.8e-07,0.0,0 STARLINK-6196,1 56487U 23064AR  24188.49889155 -.00000058  00000-0  29037-5 0  9997,2 56487  69.9989 205.4198 0003077 268.5228  91.5579 14.99139573 64682,6947.69,96.055,571.693,567.418,0.0
56487.0,STARLINK-6196,PAYLOAD,2024-07-06 18:22:44,14.991393,0.0003074,69.999,204.746,268.6386,91.4422,2.778e-06,-6e-07,0.0,0 STARLINK-6196,1 56487U 23064AR  24188.76578748 -.00000060  00000-0  27780-5 0  9996,2 56487  69.9990 204.7460 0003074 268.6386  91.4422 14.99139300 65080,6947.691,96.055,571.692,567.421,0.0
56487.0,STARLINK-6196,PAYLOAD,2024-07-07 10:23:33,14.99138918,0.0003102,69.999,203.0616,268.3808,91.6996,8.333e-06,8e-08,0.0,0 STARLINK-6196,1 56487U 23064AR  24189.43302710  .00000008  00000-0  83330-5 0  9999,2 56487  69.9990 203.0616 0003102 268.3808  91.6996 14.99138918 64826,6947.693,96.055,571.713,567.402,0.0
56487.0,STARLINK-6196,PAYLOAD,2024-07-08 10:24:47,14.99138519,0.0003122,69.9991,200.5349,268.4381,91.6421,2.2358e-05,1.79e-06,0.0,0 STARLINK-6196,1 56487U 23064AR  24190.43388684  .00000179  00000-0  22358-4 0  9996,2 56487  69.9991 200.5349 0003122 268.4381  91.6421 14.99138519 65338,6947.694,96.055,571.728,567.39,0.0
56487.0,STARLINK-6196,PAYLOAD,2024-07-08 18:25:12,14.991385,0.0003142,69.9991,199.6925,268.579,91.5009,2.1298e-05,1.66e-06,0.0,0 STARLINK-6196,1 56487U 23064AR  24190.76750689  .00000166  00000-0  21298-4 0  9998,2 56487  69.9991 199.6925 0003142 268.5790  91.5009 14.99138500 65020,6947.694,96.055,571.742,567.376,0.0
56487.0,STARLINK-6196,PAYLOAD,2024-07-09 10:26:01,14.99140434,0.0003159,69.999,198.0082,268.9105,91.1692,3.5718e-05,3.42e-06,0.0,0 STARLINK-6196,1 56487U 23064AR  24191.43474486  .00000342  00000-0  35718-4 0  9999,2 56487  69.9990 198.0082 0003159 268.9105  91.1692 14.99140434 65481,6947.688,96.055,571.748,567.358,0.0
56487.0,STARLINK-6196,PAYLOAD,2024-07-10 10:27:16,14.99138289,0.0003146,69.999,195.4816,269.0167,91.0632,1.7206e-05,1.16e-06,0.0,0 STARLINK-6196,1 56487U 23064AR  24192.43560677  .00000116  00000-0  17206-4 0  9999,2 56487  69.9990 195.4816 0003146 269.0167  91.0632 14.99138289 65638,6947.694,96.055,571.745,567.374,0.0
56487.0,STARLINK-6196,PAYLOAD,2024-07-11 10:28:30,14.99142009,0.0003121,69.9991,192.9551,269.2146,90.8656,4.4381e-05,4.47e-06,0.0,0 STARLINK-6196,1 56487U 23064AR  24193.43646291  .00000447  00000-0  44381-4 0  9998,2 56487  69.9991 192.9551 0003121 269.2146  90.8656 14.99142009 65424,6947.683,96.055,571.716,567.38,0.0
56487.0,STARLINK-6196,PAYLOAD,2024-07-12 10:29:44,14.9913879,0.0003085,69.9992,190.4286,269.1552,90.9254,3.3359e-05,3.13e-06,0.0,0 STARLINK-6196,1 56487U 23064AR  24194.43732508  .00000313  00000-0  33359-4 0  9991,2 56487  69.9992 190.4286 0003085 269.1552  90.9254 14.99138790 65935,6947.693,96.055,571.701,567.415,0.0
56487.0,STARLINK-6196,PAYLOAD,2024-07-12 16:54:04,14.9913953,0.0003085,69.9992,189.7548,269.0483,91.0323,3.4537e-05,3.27e-06,0.0,0 STARLINK-6196,1 56487U 23064AR  24194.70422066  .00000327  00000-0  34537-4 0  9990,2 56487  69.9992 189.7548 0003085 269.0483  91.0323 14.99139530 65616,6947.691,96.055,571.699,567.412,0.0
56487.0,STARLINK-6196,PAYLOAD,2024-07-13 08:54:54,14.99141497,0.0003065,69.9993,188.0704,268.5143,91.5665,2.6407e-05,2.28e-06,0.0,0 STARLINK-6196,1 56487U 23064AR  24195.37145892  .00000228  00000-0  26407-4 0  9990,2 56487  69.9993 188.0704 0003065 268.5143  91.5665 14.99141497 65718,6947.685,96.055,571.679,567.42,0.0
56487.0,STARLINK-6196,PAYLOAD,2024-07-13 16:55:18,14.99139861,0.0003123,69.9993,187.2281,270.098,89.9821,9.6345e-06,2.4e-07,0.0,0 STARLINK-6196,1 56487U 23064AR  24195.70508002  .00000024  00000-0  96345-5 0  9996,2 56487  69.9993 187.2281 0003123 270.0980  89.9821 14.99139861 66124,6947.69,96.055,571.724,567.385,0.0
56487.0,STARLINK-6196,PAYLOAD,2024-07-14 08:56:08,14.99139185,0.0003128,69.9992,185.5437,269.9059,90.1742,3.4402e-05,3.25e-06,0.0,0 STARLINK-6196,1 56487U 23064AR  24196.37232026  .00000325  00000-0  34402-4 0  9999,2 56487  69.9992 185.5437 0003128 269.9059  90.1742 14.99139185 65861,6947.692,96.055,571.73,567.383,0.0
56487.0,STARLINK-6196,PAYLOAD,2024-07-14 16:56:33,14.99139477,0.0003146,69.9992,184.7013,270.0921,89.9878,2.2632e-05,1.82e-06,0.0,0 STARLINK-6196,1 56487U 23064AR  24196.70594019  .00000182  00000-0  22632-4 0  9992,2 56487  69.9992 184.7013 0003146 270.0921  89.9878 14.99139477 66279,6947.691,96.055,571.742,567.37,0.0
56487.0,STARLINK-6196,PAYLOAD,2024-07-15 08:57:22,14.9914248,0.0003158,69.9992,183.0171,270.3146,89.7651,3.9846e-05,3.92e-06,0.0,0 STARLINK-6196,1 56487U 23064AR  24197.37317752  .00000392  00000-0  39846-4 0  9991,2 56487  69.9992 183.0171 0003158 270.3146  89.7651 14.99142480 66018,6947.681,96.055,571.741,567.352,0.0
56487.0,STARLINK-6196,PAYLOAD,2024-07-15 16:57:47,14.99139018,0.0003125,69.9993,182.1747,270.4437,89.6365,2.6378e-05,2.28e-06,0.0,0 STARLINK-6196,1 56487U 23064AR  24197.70679991  .00000228  00000-0  26378-4 0  9998,2 56487  69.9993 182.1747 0003125 270.4437  89.6365 14.99139018 66425,6947.692,96.055,571.728,567.386,0.0
56487.0,STARLINK-6196,PAYLOAD,2024-07-16 08:58:36,14.99141197,0.0003117,69.9994,180.4904,270.3641,89.7161,5.0441e-05,5.21e-06,0.0,0 STARLINK-6196,1 56487U 23064AR  24198.37403759  .00000521  00000-0  50441-4 0  9993,2 56487  69.9994 180.4904 0003117 270.3641  89.7161 14.99141197 66166,6947.685,96.055,571.716,567.385,0.0
56487.0,STARLINK-6196,PAYLOAD,2024-07-17 05:47:41,14.99138687,0.0003042,69.9996,178.301,270.6678,89.4133,9.3992e-06,2.1e-07,0.0,0 STARLINK-6196,1 56487U 23064AR  24199.24145319  .00000021  00000-0  93992-5 0  9999,2 56487  69.9996 178.3010 0003042 270.6678  89.4133 14.99138687 66652,6947.693,96.055,571.672,567.445,0.0
56487.0,STARLINK-6196,PAYLOAD,2024-07-17 08:59:51,14.99140339,0.0003012,69.9997,177.9639,270.706,89.3755,2.9453e-05,2.65e-06,0.0,0 STARLINK-6196,1 56487U 23064AR  24199.37489959  .00000265  00000-0  29453-4 0  9994,2 56487  69.9997 177.9639 0003012 270.7060  89.3755 14.99140339 66317,6947.688,96.055,571.646,567.46,0.0
56487.0,STARLINK-6196,PAYLOAD,2024-07-17 15:24:11,14.99138877,0.0002978,69.9998,177.2902,271.0772,89.0046,3.8707e-05,3.78e-06,0.0,0 STARLINK-6196,1 56487U 23064AR  24199.64179691  .00000378  00000-0  38707-4 0  9990,2 56487  69.9998 177.2902 0002978 271.0772  89.0046 14.99138877 66356,6947.693,96.055,571.627,567.489,0.0
56487.0,STARLINK-6196,PAYLOAD,2024-07-18 09:01:05,14.99144182,0.0002839,70.0001,175.4385,266.126,93.9575,8.9993e-05,1.003e-05,0.0,0 STARLINK-6196,1 56487U 23064AR  24200.37575553  .00001003  00000-0  89993-4 0  9999,2 56487  70.0001 175.4385 0002839 266.1260  93.9575 14.99144182 66461,6947.676,96.055,571.514,567.569,0.0
56487.0,STARLINK-6196,PAYLOAD,2024-07-18 15:25:25,14.99140124,0.000281,70.0001,174.7645,268.2277,91.856,4.5066e-05,4.55e-06,0.0,0 STARLINK-6196,1 56487U 23064AR  24200.64265519  .00000455  00000-0  45066-4 0  9990,2 56487  70.0001 174.7645 0002810 268.2277  91.8560 14.99140124 66500,6947.689,96.055,571.506,567.601,0.0
56487.0,STARLINK-6196,PAYLOAD,2024-07-19 04:14:05,14.99137855,0.0002832,70.0001,173.4171,267.6608,92.4227,4.0124e-05,3.95e-06,0.0,0 STARLINK-6196,1 56487U 23064AR  24201.17644900  .00000395  00000-0  40124-4 0  9997,2 56487  70.0001 173.4171 0002832 267.6608  92.4227 14.99137855 66947,6947.696,96.055,571.528,567.593,0.0
